{
    "links": {
        "self": "http://www.neowsapp.com/rest/v1/neo/3760218?api_key=iIulBulltgU6a56xZRHN4H3l9WmuAYTsLGpBGhQ2"
    },
    "id": "3760218",
    "neo_reference_id": "3760218",
    "name": "(2016 TT)",
    "designation": "2016 TT",
    "nasa_jpl_url": "http://ssd.jpl.nasa.gov/sbdb.cgi?sstr=3760218",
    "absolute_magnitude_h": 26.0,
    "estimated_diameter": {
        "kilometers": {
            "estimated_diameter_min": 0.0167708462,
            "estimated_diameter_max": 0.0375007522
        },
        "meters": {
            "estimated_diameter_min": 16.7708462163,
            "estimated_diameter_max": 37.5007521798
        },
        "miles": {
            "estimated_diameter_min": 0.0104209175,
            "estimated_diameter_max": 0.0233018799
        },
        "feet": {
            "estimated_diameter_min": 55.0224631002,
            "estimated_diameter_max": 123.0339677816
        }
    },
    "is_potentially_hazardous_asteroid": false,
    "close_approach_data": [
        {
            "close_approach_date": "2004-09-25",
            "close_approach_date_full": "2004-Sep-25 00:15",
            "epoch_date_close_approach": 1096071300000,
            "relative_velocity": {
                "kilometers_per_second": "11.3932243223",
                "kilometers_per_hour": "41015.6075601054",
                "miles_per_hour": "25485.5034864444"
            },
            "miss_distance": {
                "astronomical": "0.0089769962",
                "lunar": "3.4920515218",
                "kilometers": "1342939.510518094",
                "miles": "834463.9172299372"
            },
            "orbiting_body": "Earth"
        },
        {
            "close_approach_date": "2016-09-27",
            "close_approach_date_full": "2016-Sep-27 10:22",
            "epoch_date_close_approach": 1474971720000,
            "relative_velocity": {
                "kilometers_per_second": "11.9121649836",
                "kilometers_per_hour": "42883.7939410072",
                "miles_per_hour": "26646.3218518441"
            },
            "miss_distance": {
                "astronomical": "0.0111792562",
                "lunar": "4.3487306618",
                "kilometers": "1672392.915704294",
                "miles": "1039176.7705514972"
            },
            "orbiting_body": "Earth"
        },
        {
            "close_approach_date": "2166-05-17",
            "close_approach_date_full": "2166-May-17 06:57",
            "epoch_date_close_approach": 6196978620000,
            "relative_velocity": {
                "kilometers_per_second": "24.9196049426",
                "kilometers_per_hour": "89710.577793346",
                "miles_per_hour": "55742.6642960932"
            },
            "miss_distance": {
                "astronomical": "0.4689295466",
                "lunar": "182.4135936274",
                "kilometers": "70150861.351425742",
                "miles": "43589723.9614175596"
            },
            "orbiting_body": "Earth"
        }
    ],
    "orbital_data": {
        "orbit_id": "12",
        "orbit_determination_date": "2017-04-06 08:23:26",
        "first_observation_date": "2016-10-02",
        "last_observation_date": "2016-11-02",
        "data_arc_in_days": 31,
        "observations_used": 62,
        "orbit_uncertainty": "6",
        "minimum_orbit_intersection": ".00166304",
        "jupiter_tisserand_invariant": "3.899",
        "epoch_osculation": "2459000.5",
        "eccentricity": ".5068544172670087",
        "semi_major_axis": "1.80183032117192",
        "inclination": "4.753842504499666",
        "ascending_node_longitude": "184.2175494483017",
        "orbital_period": "883.4241418139399",
        "perihelion_distance": ".8885646637202994",
        "perihelion_argument": "130.3858156717376",
        "aphelion_distance": "2.715095978623541",
        "perihelion_time": "2459388.425150853371",
        "mean_anomaly": "201.9184537786538",
        "mean_motion": ".4075052774319818",
        "equinox": "J2000",
        "orbit_class": {
            "orbit_class_type": "APO",
            "orbit_class_description": "Near-Earth asteroid orbits which cross the Earth’s orbit similar to that of 1862 Apollo",
            "orbit_class_range": "a (semi-major axis) > 1.0 AU; q (perihelion) < 1.017 AU"
        }
    },
    "is_sentry_object": false
}